{"spkid": "20180186", "covariance": {"labels": ["e", "q", "tp", "node", "peri", "i"], "elements": [{"label": "e", "value": ".6307118364954828", "title": "eccentricity", "units": null, "sigma": 1.93958329220117e-08, "name": "e"}, {"label": "q", "title": "perihelion distance", "value": ".8940789911846194", "units": "au", "name": "q", "sigma": 4.63024795379746e-08}, {"label": "tp", "name": "tp", "sigma": 9.38160193458409e-06, "title": "time of perihelion passage", "value": "2457091.291992635627", "units": "TDB"}, {"sigma": 2.33715387630515e-05, "name": "om", "units": "deg", "title": "longitude of the ascending node", "value": "178.1280722195979", "label": "node"}, {"units": "deg", "value": "243.1068764077614", "title": "argument of perihelion", "sigma": 2.48502423878416e-05, "name": "w", "label": "peri"}, {"label": "i", "units": "deg", "value": "8.567183967108548", "title": "inclination", "sigma": 7.25768586256915e-06, "name": "i"}], "data": [["3.761983347385939E-16", "-8.978497859193835E-16", "-3.986729213653729E-15", "2.257376241953904E-14", "-2.466561072731577E-14", "-1.65911938545557E-14"], ["-8.978497859193835E-16", "2.143919611364553E-15", "8.556019282511841E-15", "-5.274174410645107E-14", "5.522323928785355E-14", "3.997370337689321E-14"], ["-3.986729213653729E-15", "8.556019282511841E-15", "8.8014454858992E-11", "-2.988221562257526E-11", "8.741485390525235E-11", "9.92929633587163E-12"], ["2.257376241953904E-14", "-5.274174410645107E-14", "-2.988221562257526E-11", "5.462288241528171E-10", "-5.560877959841406E-10", "-8.552182459158448E-11"], ["-2.466561072731577E-14", "5.522323928785355E-14", "8.741485390525235E-11", "-5.560877959841406E-10", "6.175345467344785E-10", "8.669670330057839E-11"], ["-1.65911938545557E-14", "3.997370337689321E-14", "9.92929633587163E-12", "-8.552182459158448E-11", "8.669670330057839E-11", "5.267400407973615E-11"]], "epoch": "2457233.5"}, "elements": [{"title": "eccentricity", "value": ".6313870372993284", "units": null, "name": "e", "sigma": "1.9416E-8", "label": "e"}, {"label": "a", "value": "2.421108856624721", "title": "semi-major axis", "units": "au", "sigma": "3.0191E-9", "name": "a"}, {"name": "q", "sigma": "4.6364E-8", "title": "perihelion distance", "value": ".8924521086612739", "units": "au", "label": "q"}, {"units": "deg", "title": "inclination; angle with respect to x-y ecliptic plane", "value": "8.565508955964802", "name": "i", "sigma": "7.2537E-6", "label": "i"}, {"label": "node", "value": "178.00842829794", "title": "longitude of the ascending node", "units": "deg", "sigma": "2.3407E-5", "name": "om"}, {"units": "deg", "title": "argument of perihelion", "value": "243.152956684533", "sigma": "2.4879E-5", "name": "w", "label": "peri"}, {"name": "ma", "sigma": "3.328E-6", "units": "deg", "title": "mean anomaly", "value": "355.6532824916767", "label": "M"}, {"name": "tp", "sigma": "1.2743E-5", "units": "TDB", "value": "2461217.114176396766", "title": "time of perihelion passage", "label": "tp"}, {"label": "period", "sigma": "2.5738E-6", "name": "per", "title": "sidereal orbital period", "value": "1376.004649803604", "units": "d"}, {"sigma": "4.8937E-10", "name": "n", "units": "deg/d", "value": ".2616270228820683", "title": "mean motion", "label": "n"}, {"label": "Q", "name": "ad", "sigma": "4.9253E-9", "value": "3.949765604588169", "title": "aphelion distance", "units": "au"}], "epoch": "2461200.5"}